IRIDIUM 119             
1 42959U 17061E   24286.48933847  .00000532  00000+0  18294-3 0  9998
2 42959  86.3909 281.2676 0002267  99.8329 260.3123 14.34217018366996
IRIDIUM 107             
1 42960U 17061F   24286.50836460  .00000009  00000+0 -39017-5 0  9994
2 42960  86.3905 281.2775 0002283  99.3429 260.8025 14.34217377367005
IRIDIUM 132             
1 42961U 17061G   24286.51470734  .00000163  00000+0  50989-4 0  9994
2 42961  86.3907 281.2581 0002606  97.4171 262.7321 14.34218500367004
IRIDIUM 136             
1 42962U 17061H   24286.47664934  .00000275  00000+0  91008-4 0  9998
2 42962  86.3909 281.2779 0002208  93.5483 266.5966 14.34216935367015
IRIDIUM 139             
1 42963U 17061J   24286.48299637  .00000544  00000+0  18706-3 0  9996
2 42963  86.3911 281.3276 0002485  96.8972 263.2507 14.34217027367027
IRIDIUM 125             
1 42964U 17061K   24286.40054157 -.00000039  00000+0 -20945-4 0  9995
2 42964  86.3910 281.4121 0002036 107.4983 252.6435 14.34216848367022
IRIDIUM 135             
1 43070U 17083A   24286.51419386  .00001558  00000+0  54914-3 0  9996
2 43070  86.4010 218.0206 0002574  73.0305 287.1173 14.34218779356335
IRIDIUM 138             
1 43071U 17083B   24286.53957576  .00001552  00000+0  54711-3 0  9996
2 43071  86.3999 217.7137 0001700  88.1353 272.0037 14.34212518356326
